NORAD_CAT_ID,OBJECT_NAME,OBJECT_TYPE,EPOCH,MEAN_MOTION,ECCENTRICITY,INCLINATION,RA_OF_ASC_NODE,ARG_OF_PERICENTER,MEAN_ANOMALY,BSTAR,MEAN_MOTION_DOT,MEAN_MOTION_DDOT,TLE_LINE0,TLE_LINE1,TLE_LINE2,SEMIMAJOR_AXIS,PERIOD,APOGEE,PERIGEE,DECAYED
52348.0,STARLINK-3829,PAYLOAD,2022-07-15 14:00:01,15.18457964,0.0001883,53.2173,63.8782,35.1961,24.6962,-0.037094,-0.00720993,0.0,0 STARLINK-3829,1 52348U 22045T   22196.58334491 -.00720993  00000-0 -37094-1 0  9998,2 52348  53.2173  63.8782 0001883  35.1961  24.6962 15.18457964  1307,6888.637,94.833,511.8,509.205,0.0
52348.0,STARLINK-3829,PAYLOAD,2022-07-15 22:00:00,15.17950922,0.0002084,53.2173,62.3615,32.2138,50.5201,-0.037904,-0.00725679,0.0,0 STARLINK-3829,1 52348U 22045T   22196.91667824 -.00725679  00000-0 -37904-1 0  9990,2 52348  53.2173  62.3615 0002084  32.2138  50.5201 15.17950922  1309,6890.170999999999,94.865,513.472,510.6,0.0
52348.0,STARLINK-3829,PAYLOAD,2022-07-16 06:00:00,15.17439407,0.0001754,53.2172,60.8436,41.5245,63.4416,-0.038314,-0.00722924,0.0,0 STARLINK-3829,1 52348U 22045T   22197.25001157 -.00722924  00000-0 -38314-1 0  9995,2 52348  53.2172  60.8436 0001754  41.5245  63.4416 15.17439407 14627,6891.72,94.897,514.793,512.376,0.0
52348.0,STARLINK-3829,PAYLOAD,2022-07-16 14:00:01,15.1692924,0.00019,53.2174,59.326,39.0619,87.523,-0.038859,-0.00722554,0.0,0 STARLINK-3829,1 52348U 22045T   22197.58334491 -.00722554  00000-0 -38859-1 0  9994,2 52348  53.2174  59.3260 0001900  39.0619  87.5230 15.16929240  1307,6893.265,94.929,516.439,513.82,0.0
52348.0,STARLINK-3829,PAYLOAD,2022-07-16 22:00:00,15.16419823,0.0002218,53.2173,57.8129,31.8899,115.6992,-0.039493,-0.00723636,0.0,0 STARLINK-3829,1 52348U 22045T   22197.91667824 -.00723636  00000-0 -39493-1 0  9997,2 52348  53.2173  57.8129 0002218  31.8899 115.6992 15.16419823  1305,6894.808000000001,94.961,518.203,515.144,0.0
52348.0,STARLINK-3829,PAYLOAD,2022-07-17 06:00:00,15.15909425,0.0002167,53.2172,56.2983,32.0271,135.9555,-0.040019,-0.00722693,0.0,0 STARLINK-3829,1 52348U 22045T   22198.25001157 -.00722693  00000-0 -40019-1 0  9994,2 52348  53.2172  56.2983 0002167  32.0271 135.9555 15.15909425 14771,6896.356,94.992,519.715,516.727,0.0
52348.0,STARLINK-3829,PAYLOAD,2022-07-17 14:00:01,15.1539957,0.0001686,53.2174,54.7846,51.2065,136.5561,-0.0406,-0.00722537,0.0,0 STARLINK-3829,1 52348U 22045T   22198.58334491 -.00722537  00000-0 -40600-1 0  9993,2 52348  53.2174  54.7846 0001686  51.2065 136.5561 15.15399570  1306,6897.903,95.024,520.931,518.605,0.0
52348.0,STARLINK-3829,PAYLOAD,2022-07-17 22:00:00,15.14888855,0.000177,53.2173,53.275,48.5405,158.3886,-0.041137,-0.00721599,0.0,0 STARLINK-3829,1 52348U 22045T   22198.91667824 -.00721599  00000-0 -41137-1 0  9992,2 52348  53.2173  53.2750 0001770  48.5405 158.3886 15.14888855  1304,6899.453,95.056,522.539,520.097,0.0
52348.0,STARLINK-3829,PAYLOAD,2022-07-18 14:00:01,15.13869016,0.0001861,53.2174,50.2538,41.4286,201.9971,-0.042313,-0.00721111,0.0,0 STARLINK-3829,1 52348U 22045T   22199.58334491 -.00721111  00000-0 -42313-1 0  9994,2 52348  53.2174  50.2538 0001861  41.4286 201.9971 15.13869016 14970,6902.551,95.121,525.701,523.132,0.0
52348.0,STARLINK-3829,PAYLOAD,2022-07-18 22:00:00,15.13358847,0.0001951,53.2174,48.7477,38.9918,221.7618,-0.042929,-0.00721151,0.0,0 STARLINK-3829,1 52348U 22045T   22199.91667824 -.00721151  00000-0 -42929-1 0  9997,2 52348  53.2174  48.7477 0001951  38.9918 221.7618 15.13358847  1303,6904.102,95.153,527.314,524.62,0.0
52348.0,STARLINK-3829,PAYLOAD,2022-07-19 14:00:01,15.12338554,0.0001805,53.2175,45.7336,40.905,252.6688,-0.044106,-0.00720028,0.0,0 STARLINK-3829,1 52348U 22045T   22200.58334491 -.00720028  00000-0 -44106-1 0  9995,2 52348  53.2175  45.7336 0001805  40.9050 252.6688 15.12338554 15120,6907.206999999999,95.217,530.319,527.826,0.0
52348.0,STARLINK-3829,PAYLOAD,2022-07-19 22:00:00,15.11829364,0.0001806,53.2175,44.2311,41.5133,267.5496,-0.044853,-0.0072173,0.0,0 STARLINK-3829,1 52348U 22045T   22200.91667824 -.00721730  00000-0 -44853-1 0  9991,2 52348  53.2175  44.2311 0001806  41.5133 267.5496 15.11829364  1307,6908.7580000000025,95.249,531.871,529.375,0.0
52348.0,STARLINK-3829,PAYLOAD,2022-07-20 14:00:01,15.10808464,0.0001708,53.2177,41.2241,42.495,295.7116,-0.046016,-0.00719787,0.0,0 STARLINK-3829,1 52348U 22045T   22201.58334491 -.00719787  00000-0 -46016-1 0  9998,2 52348  53.2177  41.2241 0001708  42.4950 295.7116 15.10808464 15287,6911.87,95.313,534.9159999999998,532.555,0.0
52348.0,STARLINK-3829,PAYLOAD,2022-07-20 22:00:01,15.10299786,0.0001895,53.2176,39.7251,36.7093,315.2109,-0.046856,-0.00722468,0.0,0 STARLINK-3829,1 52348U 22045T   22201.91668981 -.00722468  00000-0 -46856-1 0  9991,2 52348  53.2176  39.7251 0001895  36.7093 315.2109 15.10299786  1309,6913.422,95.345,536.597,533.977,0.0
52348.0,STARLINK-3829,PAYLOAD,2022-07-21 14:00:01,15.09202174,0.0001814,53.2177,36.7256,47.4196,329.9757,-0.025177,-0.00383952,0.0,0 STARLINK-3829,1 52348U 22045T   22202.58335648 -.00383952  00000-0 -25177-1 0  9990,2 52348  53.2177  36.7256 0001814  47.4196 329.9757 15.09202174  1300,6916.774,95.415,539.893,537.384,0.0
52348.0,STARLINK-3829,PAYLOAD,2022-07-21 22:00:00,15.08840865,0.0001799,53.2176,35.2303,48.2239,340.9922,-0.00050383,-8.298e-05,0.0,0 STARLINK-3829,1 52348U 22045T   22202.91667824 -.00008298  00000-0 -50383-3 0  9997,2 52348  53.2176  35.2303 0001799  48.2239 340.9922 15.08840865 15480,6917.878000000002,95.437,540.987,538.498,0.0
52348.0,STARLINK-3829,PAYLOAD,2022-07-22 06:00:00,15.08837767,0.0001756,53.2175,33.7324,45.29,355.5203,-0.00016325,-2.885e-05,0.0,0 STARLINK-3829,1 52348U 22045T   22203.25001157 -.00002885  00000-0 -16325-3 0  9990,2 52348  53.2175  33.7324 0001756  45.2900 355.5203 15.08837767  1307,6917.887,95.438,540.967,538.5369999999998,0.0
52348.0,STARLINK-3829,PAYLOAD,2022-07-22 22:00:00,15.08825931,0.0001786999999999,53.2193,30.7495,34.7294,29.3109,0.00029649,4.432e-05,0.0,0 STARLINK-3829,1 52348U 22045T   22203.91667824  .00004432  00000-0  29649-3 0  9993,2 52348  53.2193  30.7495 0001787  34.7294  29.3109 15.08825931 15638,6917.9230000000025,95.438,541.025,538.552,0.0
52348.0,STARLINK-3829,PAYLOAD,2022-07-23 14:00:01,15.08822236,0.0001685,53.2197,27.7565,42.7386,44.4792,-0.00044056,-7.289e-05,0.0,0 STARLINK-3829,1 52348U 22045T   22204.58335648 -.00007289  00000-0 -44056-3 0  9997,2 52348  53.2197  27.7565 0001685  42.7386  44.4792 15.08822236  1304,6917.935,95.439,540.965,538.634,0.0
52348.0,STARLINK-3829,PAYLOAD,2022-07-23 16:00:00,15.08827054,0.0001738,53.2197,27.3831,41.117,138.9296,-0.0013997,-0.00022487,0.0,0 STARLINK-3829,1 52348U 22045T   22204.66667824 -.00022487  00000-0 -13997-2 0  9996,2 52348  53.2197  27.3831 0001738  41.1170 138.9296 15.08827054 15743,6917.92,95.438,540.987,538.5830000000002,0.0
52348.0,STARLINK-3829,PAYLOAD,2022-07-23 22:00:00,15.08799389,0.0001878,53.2197,26.262,37.0744,61.6604,0.0030287,0.0004819,0.0,0 STARLINK-3829,1 52348U 22045T   22204.91667824  .00048190  00000-0  30287-2 0  9992,2 52348  53.2197  26.2620 0001878  37.0744  61.6604 15.08799389  1304,6918.005,95.44,541.169,538.57,0.0
52348.0,STARLINK-3829,PAYLOAD,2022-07-24 06:00:00,15.08825712,0.000174,53.2198,24.7641,39.796,70.5062,0.000164,2.322e-05,0.0,0 STARLINK-3829,1 52348U 22045T   22205.25001157  .00002322  00000-0  16400-3 0  9990,2 52348  53.2198  24.7641 0001740  39.7960  70.5062 15.08825712 15838,6917.924,95.438,540.993,538.585,0.0
52348.0,STARLINK-3829,PAYLOAD,2022-07-24 14:00:01,15.08846069,0.0001786999999999,53.2198,23.2678,42.9215,78.9527,-0.00075768,-0.00012328,0.0,0 STARLINK-3829,1 52348U 22045T   22205.58334491 -.00012328  00000-0 -75768-3 0  9997,2 52348  53.2198  23.2678 0001787  42.9215  78.9527 15.08846069  1305,6917.861999999999,95.437,540.9630000000002,538.491,0.0
52348.0,STARLINK-3829,PAYLOAD,2022-07-24 22:00:00,15.08815838,0.000197,53.2199,21.773000000000003,37.522,95.9557,0.0032319,0.0005149,0.0,0 STARLINK-3829,1 52348U 22045T   22205.91667824  .00051490  00000-0  32319-2 0  9998,2 52348  53.2199  21.7730 0001970  37.5220  95.9557 15.08815838  1300,6917.954000000002,95.439,541.182,538.456,0.0
52348.0,STARLINK-3829,PAYLOAD,2022-07-25 14:00:01,15.08866018,0.0001857,53.2202,18.7789,43.1402,113.522,-0.0010410999999999,-0.00016831,0.0,0 STARLINK-3829,1 52348U 22045T   22206.58334491 -.00016831  00000-0 -10411-2 0  9994,2 52348  53.2202  18.7789 0001857  43.1402 113.5220 15.08866018  1304,6917.801,95.436,540.95,538.381,0.0
52348.0,STARLINK-3829,PAYLOAD,2022-07-25 22:00:00,15.08840176,0.0001994,53.2194,17.2839,36.8457,131.4393,3.1234e-06,-2.38e-06,0.0,0 STARLINK-3829,1 52348U 22045T   22206.91667824 -.00000238  00000-0  31234-5 0  9992,2 52348  53.2194  17.2839 0001994  36.8457 131.4393 15.08840176  1302,6917.88,95.438,541.124,538.365,0.0
52348.0,STARLINK-3829,PAYLOAD,2022-07-26 14:00:01,15.08851471,0.0001825,53.2187,14.29,41.2663,150.1958,-0.0012806,-0.00020618,0.0,0 STARLINK-3829,1 52348U 22045T   22207.58334491 -.00020618  00000-0 -12806-2 0  9993,2 52348  53.2187  14.2900 0001825  41.2663 150.1958 15.08851471  1307,6917.845,95.437,540.9730000000002,538.448,0.0
52348.0,STARLINK-3829,PAYLOAD,2022-07-26 22:00:00,15.08816234,0.0001999,53.2186,12.7948,36.2451,166.82,0.0030126,0.00047953,0.0,0 STARLINK-3829,1 52348U 22045T   22207.91667824  .00047953  00000-0  30126-2 0  9993,2 52348  53.2186  12.7948 0001999  36.2451 166.8200 15.08816234  1304,6917.953,95.439,541.201,538.435,0.0
52348.0,STARLINK-3829,PAYLOAD,2022-07-27 14:00:01,15.08867566,0.0001821,53.2189,9.801,41.3531,184.9044,-0.0013658,-0.00021976,0.0,0 STARLINK-3829,1 52348U 22045T   22208.58334491 -.00021976  00000-0 -13658-2 0  9998,2 52348  53.2189   9.8010 0001821  41.3531 184.9044 15.08867566  1305,6917.795999999999,95.436,540.9209999999998,538.401,0.0
